<?xml version='1.0' encoding='UTF-8' standalone='yes' ?>
<gpx version="1.1" creator="OsmAndRouterV2" xmlns="http://www.topografix.com/GPX/1/1" xmlns:osmand="https://osmand.net/docs/technical/osmand-file-formats/osmand-gpx" xmlns:gpxtpx="https://www8.garmin.com/xmlschemas/TrackPointExtensionv1.xsd" xmlns:xsi="http://www.w3.org/2001/XMLSchema-instance" xsi:schemaLocation="http://www.topografix.com/GPX/1/1 https://www.topografix.com/GPX/1/1/gpx.xsd">
  <metadata>
    <name>2026-01-08-nav-to-antipodes</name>
  </metadata>
  <trk>
    <name>Thu 08 Jan 2026</name>
    <trkseg>
      <trkpt lat="-52.5722214" lon="169.2531546" />
      <trkpt lat="-49.7115181" lon="178.8079184" />
      <trkpt lat="-49.7056042" lon="178.802803" />
    </trkseg>
  </trk>
</gpx>